LEMUR-2-DEMBITZ         
1 42842U 17042T   26068.47492167  .00020231  00000+0  76561-3 0  9991
2 42842  97.3807 250.9241 0006961  17.1421 343.0051 15.26947128473114
STARLINK-31712          
1 59491U 24071H   26068.16595226 -.00003547  00000+0 -11947-3 0  9995
2 59491  42.9962 354.1129 0000836  63.8061 296.2877 15.27576127107998
